{
    "links": {
        "self": "http://www.neowsapp.com/rest/v1/neo/3732117?api_key=iIulBulltgU6a56xZRHN4H3l9WmuAYTsLGpBGhQ2"
    },
    "id": "3732117",
    "neo_reference_id": "3732117",
    "name": "(2015 UK51)",
    "designation": "2015 UK51",
    "nasa_jpl_url": "http://ssd.jpl.nasa.gov/sbdb.cgi?sstr=3732117",
    "absolute_magnitude_h": 24.1,
    "estimated_diameter": {
        "kilometers": {
            "estimated_diameter_min": 0.040230458,
            "estimated_diameter_max": 0.0899580388
        },
        "meters": {
            "estimated_diameter_min": 40.2304579834,
            "estimated_diameter_max": 89.9580388169
        },
        "miles": {
            "estimated_diameter_min": 0.0249980399,
            "estimated_diameter_max": 0.0558973165
        },
        "feet": {
            "estimated_diameter_min": 131.9896957704,
            "estimated_diameter_max": 295.1379320721
        }
    },
    "is_potentially_hazardous_asteroid": false,
    "close_approach_data": [
        {
            "close_approach_date": "2015-10-06",
            "close_approach_date_full": "2015-Oct-06 02:13",
            "epoch_date_close_approach": 1444097580000,
            "relative_velocity": {
                "kilometers_per_second": "12.8553104883",
                "kilometers_per_hour": "46279.1177579819",
                "miles_per_hour": "28756.0440313416"
            },
            "miss_distance": {
                "astronomical": "0.0719377953",
                "lunar": "27.9838023717",
                "kilometers": "10761740.949376011",
                "miles": "6687035.7439745118"
            },
            "orbiting_body": "Earth"
        },
        {
            "close_approach_date": "2162-10-24",
            "close_approach_date_full": "2162-Oct-24 03:10",
            "epoch_date_close_approach": 6084558600000,
            "relative_velocity": {
                "kilometers_per_second": "18.7884606475",
                "kilometers_per_hour": "67638.4583310918",
                "miles_per_hour": "42027.9076224498"
            },
            "miss_distance": {
                "astronomical": "0.1853843173",
                "lunar": "72.1144994297",
                "kilometers": "27733098.999484151",
                "miles": "17232548.6343812438"
            },
            "orbiting_body": "Earth"
        }
    ],
    "orbital_data": {
        "orbit_id": "10",
        "orbit_determination_date": "2017-04-06 08:31:09",
        "first_observation_date": "2015-10-19",
        "last_observation_date": "2015-11-10",
        "data_arc_in_days": 22,
        "observations_used": 34,
        "orbit_uncertainty": "8",
        "minimum_orbit_intersection": ".0665087",
        "jupiter_tisserand_invariant": "3.332",
        "epoch_osculation": "2457318.5",
        "eccentricity": ".6072708910586978",
        "semi_major_axis": "2.267363673364212",
        "inclination": "8.626092767514498",
        "ascending_node_longitude": "39.26368446853858",
        "orbital_period": "1247.039480844129",
        "perihelion_distance": ".8904597150862047",
        "perihelion_argument": "286.9170464090863",
        "aphelion_distance": "3.644267631642219",
        "perihelion_time": "2457266.779335728388",
        "mean_anomaly": "14.93091391555358",
        "mean_motion": ".2886837229534334",
        "equinox": "J2000",
        "orbit_class": {
            "orbit_class_type": "APO",
            "orbit_class_description": "Near-Earth asteroid orbits which cross the Earth’s orbit similar to that of 1862 Apollo",
            "orbit_class_range": "a (semi-major axis) > 1.0 AU; q (perihelion) < 1.017 AU"
        }
    },
    "is_sentry_object": false
}